[{"OBJECT_NAME":"STARLINK-35008","OBJECT_ID":"2025-192E","EPOCH":"2026-03-09T22:00:01.999584","MEAN_MOTION":15.30164779,"ECCENTRICITY":0.00010153,"INCLINATION":53.1577,"RA_OF_ASC_NODE":231.3051,"ARG_OF_PERICENTER":78.1444,"MEAN_ANOMALY":110.8383,"EPHEMERIS_TYPE":0,"CLASSIFICATION_TYPE":"U","NORAD_CAT_ID":65408,"ELEMENT_SET_NO":999,"REV_AT_EPOCH":578,"BSTAR":0.0027990517,"MEAN_MOTION_DOT":0.00083384,"MEAN_MOTION_DDOT":0},{"OBJECT_NAME":"TITAN 3C TRANSTAGE DEB","OBJECT_ID":"1965-082PT","EPOCH":"2026-03-09T13:23:41.116128","MEAN_MOTION":15.28908269,"ECCENTRICITY":0.00104371,"INCLINATION":32.0266,"RA_OF_ASC_NODE":255.1391,"ARG_OF_PERICENTER":172.8339,"MEAN_ANOMALY":187.2474,"EPHEMERIS_TYPE":0,"CLASSIFICATION_TYPE":"U","NORAD_CAT_ID":3462,"ELEMENT_SET_NO":999,"REV_AT_EPOCH":24824,"BSTAR":0.0004444037,"MEAN_MOTION_DOT":0.00012939,"MEAN_MOTION_DDOT":0}]
